[{"OBJECT_NAME":"STARLINK-2470","OBJECT_ID":"2021-036BL","EPOCH":"2026-03-10T00:00:02.999808","MEAN_MOTION":15.27176336,"ECCENTRICITY":0.00016103,"INCLINATION":53.1455,"RA_OF_ASC_NODE":99.4339,"ARG_OF_PERICENTER":99.1433,"MEAN_ANOMALY":347.7557,"EPHEMERIS_TYPE":0,"CLASSIFICATION_TYPE":"U","NORAD_CAT_ID":48334,"ELEMENT_SET_NO":999,"REV_AT_EPOCH":579,"BSTAR":0.062418193,"MEAN_MOTION_DOT":0.01853094,"MEAN_MOTION_DDOT":0},{"OBJECT_NAME":"TRANSPORTER-1 OBJECT M","OBJECT_ID":"2021-006M","EPOCH":"2026-03-09T22:05:37.843296","MEAN_MOTION":15.3227845,"ECCENTRICITY":0.00102759,"INCLINATION":97.2377,"RA_OF_ASC_NODE":116.7915,"ARG_OF_PERICENTER":187.5492,"MEAN_ANOMALY":172.5597,"EPHEMERIS_TYPE":0,"CLASSIFICATION_TYPE":"U","NORAD_CAT_ID":47424,"ELEMENT_SET_NO":999,"REV_AT_EPOCH":28439,"BSTAR":0.00023985652,"MEAN_MOTION_DOT":7.411e-5,"MEAN_MOTION_DDOT":0}]
